OBJECT_NAME,OBJECT_ID,EPOCH,MEAN_MOTION,ECCENTRICITY,INCLINATION,RA_OF_ASC_NODE,ARG_OF_PERICENTER,MEAN_ANOMALY,EPHEMERIS_TYPE,CLASSIFICATION_TYPE,NORAD_CAT_ID,ELEMENT_SET_NO,REV_AT_EPOCH,BSTAR,MEAN_MOTION_DOT,MEAN_MOTION_DDOT
EUTELSAT QUANTUM,2021-069B,2026-06-14T03:04:06.226176,1.00271057,.0002058,0.0216,36.0925,47.7293,272.3337,0,U,49056,999,1789,0,.135E-5,0
ZHONGXING-2E,2021-071A,2026-06-14T02:37:38.601120,1.00270870,.0001692,0.0378,229.9384,261.5402,268.4214,0,U,49062,999,1800,0,-.282E-5,0
TJS-7,2021-077A,2026-06-14T04:04:43.596192,1.00269768,.0002011,0.4998,86.1463,333.6375,164.3868,0,U,49115,999,952,0,-.115E-5,0
CHINASAT 9B,2021-080A,2026-06-14T02:37:38.601120,1.00269984,.0001382,0.0460,92.9814,19.7368,290.5306,0,U,49125,999,1761,0,-.303E-5,0
SHIJIAN-21 (SJ-21),2021-094A,2026-06-13T21:32:06.497952,1.00272217,.00498376,5.1051,61.2000,168.2513,123.8243,0,U,49330,999,532,0,-.341E-5,0
SES-17,2021-095A,2026-06-14T04:41:38.580288,1.00268890,.0000747,0.0253,34.4848,49.1290,182.1985,0,U,49332,999,1782,0,-.263E-5,0
SYRACUSE 4A,2021-095B,2026-06-13T22:19:05.418048,1.00270628,.0001561,0.0168,337.7768,119.9746,184.7701,0,U,49333,999,1791,0,.145E-5,0
QZS-1R (MICHIBIKI-1R),2021-096A,2026-06-13T15:27:40.262400,1.00256479,.07545779,37.4546,79.6370,271.7231,276.7370,0,U,49336,999,1697,0,-.269E-5,0
ZHONGXING-1D,2021-114A,2026-06-14T05:10:07.111776,1.00270288,.0000634,0.0295,236.2566,348.8654,245.1222,0,U,49505,999,1679,0,-.328E-5,0
STPSAT-6,2021-118A,2026-06-14T04:01:13.931040,1.00272974,.0001483,0.3130,85.4179,246.0525,239.6553,0,U,49817,999,1654,0,-.38E-6,0
EXPRESS AMU-7,2021-123A,2026-06-14T03:31:41.080800,1.00271741,.0000518,0.0140,302.6693,17.1111,140.6017,0,U,50001,999,1651,0,-.234E-5,0
EXPRESS AMU-3,2021-123B,2026-06-13T23:39:15.221376,1.00269918,.0000167,0.0220,322.8911,58.9384,338.1712,0,U,50002,999,699,0,0,0
TIANLIAN 2-02,2021-124A,2026-06-14T03:39:09.596160,1.00271073,.0001392,0.7922,86.1908,200.9544,201.0741,0,U,50005,999,1659,0,-.6E-7,0
TURKSAT 5B,2021-126A,2026-06-14T01:19:44.360256,1.00270998,.0003444,0.0682,340.5204,13.2066,330.5720,0,U,50212,999,1626,0,.155E-5,0
INMARSAT 6-F1,2021-128A,2026-06-13T20:23:44.612160,1.00270411,.00003535,0.0154,313.0255,268.8446,69.9846,0,U,50319,999,1622,0,-.162E-5,0
SHIYAN-12 01 (SY-12 01),2021-129A,2026-06-13T18:26:43.937376,1.00038566,.0003252,3.6654,79.9550,284.6275,237.1355,0,U,50321,999,1646,0,.72E-6,0
SHIYAN-12 02 (SY-12 02),2021-129B,2026-06-13T18:33:16.233984,1.00490118,.000267,3.6650,79.9607,61.1404,125.5246,0,U,50322,999,1646,0,-.232E-5,0
TJS-9,2021-135A,2026-06-14T00:04:12.321696,1.00268761,.0004278,0.0455,253.0997,155.9275,351.5189,0,U,50574,999,1639,0,-.29E-5,0
USA 324,2022-006A,2026-06-06T02:06:38.886912,1.00289779,.000284,0.7690,83.2777,165.6787,110.1567,0,U,51280,999,1602,0,-.58E-6,0
GOES 18,2022-021A,2026-06-14T03:44:38.702400,1.00272156,.0000466,0.0208,162.0083,5.3663,14.2477,0,U,51850,999,656,0,.105E-5,0
ZHONGXING-6D,2022-038A,2026-06-13T22:10:52.370400,1.00273604,.0000496,0.0184,280.4445,154.6831,284.8828,0,U,52255,999,1538,0,-.344E-5,0
NILESAT 301,2022-061A,2026-06-14T04:31:03.357120,1.00270303,.0004667,0.0458,0.3997,53.0301,269.8375,0,U,52817,999,1470,0,-.49E-6,0
CMS-02 (GSAT-24),2022-067A,2026-06-14T01:31:28.235136,1.00271267,.0001405,0.0456,108.0817,257.8680,2.2908,0,U,52903,999,1457,0,-.155E-5,0
MEASAT 3D,2022-067B,2026-06-13T18:43:13.277856,1.00268356,.00004871,0.0341,322.2499,99.7518,212.3572,0,U,52904,999,1461,0,-.23E-5,0
SES-22,2022-071A,2026-06-14T03:52:38.631072,1.00269789,.0001254,0.0143,335.3805,95.0366,111.2012,0,U,52933,999,749,0,.113E-5,0
WFOV (USA 332),2022-073A,2026-06-13T23:59:12.801408,1.00268119,.0002181,3.7026,78.5675,236.3761,66.3965,0,U,52940,999,1433,0,-.356E-5,0
TIANLIAN 2-03,2022-078A,2026-06-14T04:36:10.367424,1.00271885,.0001559,0.6641,76.9905,326.3779,298.7582,0,U,53100,999,1451,0,.8E-6,0
SBIRS GEO-6 (USA 336),2022-092A,2026-06-14T00:04:49.762272,1.00270581,.0001698,3.2634,317.4393,118.5586,326.5296,0,U,53355,999,1420,0,-.281E-5,0
EUTELSAT KONNECT VHTS,2022-110A,2026-06-13T14:52:38.049312,1.00267874,.00023865,0.0661,102.2131,323.9630,61.6108,0,U,53765,999,680,0,.27E-6,0
ZHONGXING-1E,2022-112A,2026-06-14T01:30:58.282848,1.00272563,.0000879,0.0485,232.6524,82.7690,51.0805,0,U,53813,999,1381,0,-.14E-5,0
SES-20,2022-123A,2026-06-13T16:05:04.421184,1.00267078,.00017102,0.0329,70.2801,1.1766,328.6957,0,U,53960,999,1349,0,-.9E-6,0
SES-21,2022-123B,2026-06-14T00:03:38.656800,1.00271273,.0001189,0.0253,24.8703,31.3124,76.0336,0,U,53961,999,718,0,.79E-6,0
